SKYSAT-C4               
1 41771U 16058B   26188.48875847  .00012130  00000+0  22367-3 0  9995
2 41771  96.9169 209.4180 0003163 130.0488 230.1042 15.49254680548613
SKYSAT-C5               
1 41772U 16058C   26187.92650127  .00006073  00000+0  18242-3 0  9992
2 41772  97.0459 227.6879 0002457 176.3166 183.8096 15.34766054546771
SKYSAT-C2               
1 41773U 16058D   26187.59401764  .00010488  00000+0  24350-3 0  9999
2 41773  97.0163 208.9626 0002560  24.3070 335.8299 15.42537650548040
SKYSAT-C3               
1 41774U 16058E   26188.44059501  .00017481  00000+0  27706-3 0  9991
2 41774  96.9001 218.5177 0002001 135.7039 224.4376 15.53450138549250
ALSAT-1B                
1 41785U 16059C   26188.49317029  .00000454  00000+0  79234-4 0  9997
2 41785  97.7755 196.3806 0009738 152.3211 207.8517 14.72291442523569
PATHFINDER 1            
1 41787U 16059E   26188.45309080  .00000513  00000+0  97813-4 0  9992
2 41787  97.8171 186.8151 0029414 139.4170 220.9236 14.67687013522687
SCATSAT 1               
1 41790U 16059H   26188.16397184  .00001178  00000+0  16084-3 0  9994
2 41790  98.1180 252.1355 0054618 182.2711 177.8260 14.79573399104541
GOKTURK 1A              
1 41875U 16073A   26188.56162582  .00000273  00000+0  62657-4 0  9993
2 41875  98.1220  82.9140 0001397  78.9553 281.1806 14.62789878511801
RESOURCESAT-2A          
1 41877U 16074A   26188.48168428  .00000341  00000+0  17543-3 0  9991
2 41877  98.7516 261.8201 0002811  44.5128 315.6275 14.21608035497189
CARTOSAT-2D             
1 41948U 17008A   26188.51038758  .00005240  00000+0  25174-3 0  9996
2 41948  97.4091 247.4365 0005211 161.5270 198.6155 15.19249308520666
SENTINEL-2B             
1 42063U 17013A   26188.48721119  .00000211  00000+0  96998-4 0  9993
2 42063  98.5681 262.9752 0001192  89.5708 270.5612 14.30814220487543
CARTOSAT-2E             
1 42767U 17036C   26187.40829304  .00002997  00000+0  14513-3 0  9990
2 42767  97.4260 246.8938 0002751 216.0801 144.0249 15.19324226501060
FORMOSAT-5              
1 42920U 17049A   26188.46598507  .00000109  00000+0  38753-4 0  9996
2 42920  98.2248 263.3248 0011857  27.0561 333.1249 14.50906318469611
SENTINEL-5P             
1 42969U 17064A   26188.29036814  .00000042  00000+0  40959-4 0  9992
2 42969  98.7927 130.2790 0001108  92.5300 267.6003 14.19522407452410
SKYSAT-C11              
1 42987U 17068A   26187.96261653  .00023637  00000+0  30510-3 0  9996
2 42987  97.4374 337.6719 0000652 158.6283 201.5000 15.58985087486325
SKYSAT-C10              
1 42988U 17068B   26187.91668502  .00008421  00000+0  25039-3 0  9990
2 42988  97.4529 324.9630 0001286 108.8962 251.2421 15.35000808485382
SKYSAT-C9               
1 42989U 17068C   26188.35832516  .00009325  00000+0  21994-3 0  9998
2 42989  97.4448 326.5388 0009188  69.8221 290.4013 15.42079854485864
SKYSAT-C8               
1 42990U 17068D   26187.92284444  .00008297  00000+0  22874-3 0  9998
2 42990  97.4547 324.8452 0001190  97.2210 262.9170 15.37378325485347
SKYSAT-C7               
1 42991U 17068E   26188.17743157  .00007466  00000+0  20626-3 0  9998
2 42991  97.4556 326.0941 0006415  47.3462 312.8322 15.37334035485440
SKYSAT-C6               
1 42992U 17068F   26187.90932486  .00006719  00000+0  20626-3 0  9994
2 42992  97.4672 325.7029 0005364 104.5619 255.6218 15.34062756485347
CARTOSAT-2F             
1 43111U 18004A   26188.49477863  .00005153  00000+0  24781-3 0  9994
2 43111  97.4777 247.9306 0002143 151.6299 208.5053 15.19236178470419
GAOFEN-1 02             
1 43259U 18031A   26188.49432038  .00001099  00000+0  16527-3 0  9996
2 43259  98.0512 250.9639 0001909 328.1591  31.9503 14.76467749445696
GAOFEN-1 03             
1 43260U 18031B   26188.54014251  .00000566  00000+0  88699-4 0  9995
2 43260  98.0508 250.8655 0002989  35.5291 324.6117 14.76455194445699
GAOFEN-1 04             
1 43262U 18031D   26188.51588844  .00000538  00000+0  84772-4 0  9995
2 43262  98.0512 251.0350 0001601  58.0129 302.1236 14.76464622445689
SENTINEL-3B             
1 43437U 18039A   26188.17671325  .00000082  00000+0  51893-4 0  9998
2 43437  98.6239 255.4214 0000963 118.9874 241.1403 14.26740486426974
GAOFEN-5 01             
1 43461U 18043A   26187.92812405  .00000306  00000+0  72983-4 0  9990
2 43461  98.4582 159.9303 0002527  48.2005 311.9410 14.60619540434579
GAOFEN-6                
1 43484U 18048A   26187.58915277 -.00000071  00000+0 -25920-5 0  9994
2 43484  98.0955 250.2710 0012040 105.7369 254.5169 14.76375241436258
GAOFEN-11 01            
1 43585U 18063A   26188.50082230  .00018261  00000+0  26462-3 0  9998
2 43585  97.1275 255.3300 0002309 237.3633 122.7400 15.55910898443500
ICESAT-2                
1 43613U 18070A   26188.51915236  .00006737  00000+0  24469-3 0  9990
2 43613  92.0083 296.4734 0005939  81.2734 278.9187 15.28257742435565
HYSIS                   
1 43719U 18096A   26188.51271594  .00001010  00000+0  14486-3 0  9994
2 43719  97.9826 255.1010 0001858  86.2248 273.9175 14.78661850410424
KAZSTSAT                
1 43783U 18099AB  26188.04465603  .00001617  00000+0  13466-3 0  9992
2 43783  97.4311 219.0757 0007950  11.5065 348.6339 14.99939036414280
